[{"OBJECT_NAME":"ONEWEB-0457","OBJECT_ID":"2022-012AB","EPOCH":"2026-03-25T09:40:35.486400","MEAN_MOTION":13.10374833,"ECCENTRICITY":0.00017963,"INCLINATION":87.8799,"RA_OF_ASC_NODE":52.9478,"ARG_OF_PERICENTER":69.0856,"MEAN_ANOMALY":291.0464,"EPHEMERIS_TYPE":0,"CLASSIFICATION_TYPE":"U","NORAD_CAT_ID":51647,"ELEMENT_SET_NO":999,"REV_AT_EPOCH":19837,"BSTAR":-0.0015996692,"MEAN_MOTION_DOT":-5.46e-6,"MEAN_MOTION_DDOT":0},{"OBJECT_NAME":"ONEWEB-0458","OBJECT_ID":"2022-012AC","EPOCH":"2026-03-25T08:21:44.039232","MEAN_MOTION":13.10376599,"ECCENTRICITY":0.00017763,"INCLINATION":87.8808,"RA_OF_ASC_NODE":52.9402,"ARG_OF_PERICENTER":85.6569,"MEAN_ANOMALY":274.4762,"EPHEMERIS_TYPE":0,"CLASSIFICATION_TYPE":"U","NORAD_CAT_ID":51648,"ELEMENT_SET_NO":999,"REV_AT_EPOCH":19832,"BSTAR":0.0011655425,"MEAN_MOTION_DOT":4.2e-6,"MEAN_MOTION_DDOT":0},{"OBJECT_NAME":"ONEWEB-0461","OBJECT_ID":"2022-012AD","EPOCH":"2026-03-25T13:08:18.742560","MEAN_MOTION":13.17648955,"ECCENTRICITY":0.00018564,"INCLINATION":87.9185,"RA_OF_ASC_NODE":22.4586,"ARG_OF_PERICENTER":74.8415,"MEAN_ANOMALY":285.2922,"EPHEMERIS_TYPE":0,"CLASSIFICATION_TYPE":"U","NORAD_CAT_ID":51649,"ELEMENT_SET_NO":999,"REV_AT_EPOCH":20287,"BSTAR":3.6294378e-5,"MEAN_MOTION_DOT":2.7e-7,"MEAN_MOTION_DDOT":0},{"OBJECT_NAME":"ONEWEB-0463","OBJECT_ID":"2022-012AE","EPOCH":"2026-03-25T12:41:34.375776","MEAN_MOTION":13.17651607,"ECCENTRICITY":0.00018908,"INCLINATION":87.9173,"RA_OF_ASC_NODE":22.4931,"ARG_OF_PERICENTER":74.4472,"MEAN_ANOMALY":285.6868,"EPHEMERIS_TYPE":0,"CLASSIFICATION_TYPE":"U","NORAD_CAT_ID":51650,"ELEMENT_SET_NO":999,"REV_AT_EPOCH":20265,"BSTAR":0.00020086205,"MEAN_MOTION_DOT":9.1e-7,"MEAN_MOTION_DDOT":0},{"OBJECT_NAME":"ONEWEB-0464","OBJECT_ID":"2022-012AF","EPOCH":"2026-03-25T08:16:57.378720","MEAN_MOTION":13.10375311,"ECCENTRICITY":0.00019981,"INCLINATION":87.8802,"RA_OF_ASC_NODE":52.9686,"ARG_OF_PERICENTER":91.3618,"MEAN_ANOMALY":268.7738,"EPHEMERIS_TYPE":0,"CLASSIFICATION_TYPE":"U","NORAD_CAT_ID":51651,"ELEMENT_SET_NO":999,"REV_AT_EPOCH":19834,"BSTAR":0.00069862423,"MEAN_MOTION_DOT":2.57e-6,"MEAN_MOTION_DDOT":0},{"OBJECT_NAME":"ONEWEB-0468","OBJECT_ID":"2022-012AG","EPOCH":"2026-03-25T10:16:28.479360","MEAN_MOTION":13.10375006,"ECCENTRICITY":0.00020425,"INCLINATION":87.88,"RA_OF_ASC_NODE":52.9464,"ARG_OF_PERICENTER":92.3531,"MEAN_ANOMALY":267.7831,"EPHEMERIS_TYPE":0,"CLASSIFICATION_TYPE":"U","NORAD_CAT_ID":51652,"ELEMENT_SET_NO":999,"REV_AT_EPOCH":19833,"BSTAR":0.0013163752,"MEAN_MOTION_DOT":4.72e-6,"MEAN_MOTION_DDOT":0},{"OBJECT_NAME":"ONEWEB-0473","OBJECT_ID":"2022-012AH","EPOCH":"2026-03-25T09:54:56.670624","MEAN_MOTION":13.10376161,"ECCENTRICITY":0.00018472,"INCLINATION":87.8801,"RA_OF_ASC_NODE":52.9511,"ARG_OF_PERICENTER":86.2866,"MEAN_ANOMALY":273.8473,"EPHEMERIS_TYPE":0,"CLASSIFICATION_TYPE":"U","NORAD_CAT_ID":51653,"ELEMENT_SET_NO":999,"REV_AT_EPOCH":19833,"BSTAR":-0.00063624555,"MEAN_MOTION_DOT":-2.09e-6,"MEAN_MOTION_DDOT":0},{"OBJECT_NAME":"ONEWEB-0474","OBJECT_ID":"2022-012AJ","EPOCH":"2026-03-25T15:12:50.924736","MEAN_MOTION":13.10374304,"ECCENTRICITY":0.000199,"INCLINATION":87.8809,"RA_OF_ASC_NODE":52.8837,"ARG_OF_PERICENTER":90.6771,"MEAN_ANOMALY":269.4584,"EPHEMERIS_TYPE":0,"CLASSIFICATION_TYPE":"U","NORAD_CAT_ID":51654,"ELEMENT_SET_NO":999,"REV_AT_EPOCH":19835,"BSTAR":-0.0015898117,"MEAN_MOTION_DOT":-5.42e-6,"MEAN_MOTION_DDOT":0},{"OBJECT_NAME":"ONEWEB-0475","OBJECT_ID":"2022-012AK","EPOCH":"2026-03-25T12:58:34.771872","MEAN_MOTION":13.17651761,"ECCENTRICITY":0.00018654,"INCLINATION":87.9176,"RA_OF_ASC_NODE":22.4826,"ARG_OF_PERICENTER":100.3079,"MEAN_ANOMALY":259.8263,"EPHEMERIS_TYPE":0,"CLASSIFICATION_TYPE":"U","NORAD_CAT_ID":51655,"ELEMENT_SET_NO":999,"REV_AT_EPOCH":20267,"BSTAR":0.00012133925,"MEAN_MOTION_DOT":6.0e-7,"MEAN_MOTION_DDOT":0},{"OBJECT_NAME":"ONEWEB-0490","OBJECT_ID":"2022-138A","EPOCH":"2026-03-25T03:06:35.351712","MEAN_MOTION":13.19726197,"ECCENTRICITY":0.00018911,"INCLINATION":87.9204,"RA_OF_ASC_NODE":321.7195,"ARG_OF_PERICENTER":86.223,"MEAN_ANOMALY":273.9119,"EPHEMERIS_TYPE":0,"CLASSIFICATION_TYPE":"U","NORAD_CAT_ID":54113,"ELEMENT_SET_NO":999,"REV_AT_EPOCH":16574,"BSTAR":7.2490484e-5,"MEAN_MOTION_DOT":4.2e-7,"MEAN_MOTION_DDOT":0},{"OBJECT_NAME":"ONEWEB-0492","OBJECT_ID":"2022-138B","EPOCH":"2026-03-25T09:10:30.851328","MEAN_MOTION":13.19725403,"ECCENTRICITY":0.00019484,"INCLINATION":87.9199,"RA_OF_ASC_NODE":321.6763,"ARG_OF_PERICENTER":81.7817,"MEAN_ANOMALY":278.3536,"EPHEMERIS_TYPE":0,"CLASSIFICATION_TYPE":"U","NORAD_CAT_ID":54114,"ELEMENT_SET_NO":999,"REV_AT_EPOCH":16578,"BSTAR":0.00012472056,"MEAN_MOTION_DOT":6.3e-7,"MEAN_MOTION_DDOT":0},{"OBJECT_NAME":"ONEWEB-0495","OBJECT_ID":"2022-138C","EPOCH":"2026-03-25T08:38:39.584832","MEAN_MOTION":13.1972594,"ECCENTRICITY":0.00022991,"INCLINATION":87.9201,"RA_OF_ASC_NODE":321.6823,"ARG_OF_PERICENTER":95.1102,"MEAN_ANOMALY":265.0293,"EPHEMERIS_TYPE":0,"CLASSIFICATION_TYPE":"U","NORAD_CAT_ID":54115,"ELEMENT_SET_NO":999,"REV_AT_EPOCH":16576,"BSTAR":6.4369549e-5,"MEAN_MOTION_DOT":3.9e-7,"MEAN_MOTION_DDOT":0},{"OBJECT_NAME":"ONEWEB-0497","OBJECT_ID":"2022-138D","EPOCH":"2026-03-25T08:56:51.884736","MEAN_MOTION":13.197257,"ECCENTRICITY":0.0001814,"INCLINATION":87.9202,"RA_OF_ASC_NODE":321.6704,"ARG_OF_PERICENTER":83.5625,"MEAN_ANOMALY":276.5714,"EPHEMERIS_TYPE":0,"CLASSIFICATION_TYPE":"U","NORAD_CAT_ID":54116,"ELEMENT_SET_NO":999,"REV_AT_EPOCH":16575,"BSTAR":0.00014199595,"MEAN_MOTION_DOT":7.0e-7,"MEAN_MOTION_DDOT":0},{"OBJECT_NAME":"ONEWEB-0499","OBJECT_ID":"2022-138E","EPOCH":"2026-03-25T14:00:29.335104","MEAN_MOTION":13.19726693,"ECCENTRICITY":0.00016724,"INCLINATION":87.9205,"RA_OF_ASC_NODE":321.6387,"ARG_OF_PERICENTER":89.6832,"MEAN_ANOMALY":270.4493,"EPHEMERIS_TYPE":0,"CLASSIFICATION_TYPE":"U","NORAD_CAT_ID":54117,"ELEMENT_SET_NO":999,"REV_AT_EPOCH":16579,"BSTAR":8.876396e-6,"MEAN_MOTION_DOT":1.6e-7,"MEAN_MOTION_DDOT":0},{"OBJECT_NAME":"ONEWEB-0500","OBJECT_ID":"2022-138F","EPOCH":"2026-03-25T08:36:23.251680","MEAN_MOTION":13.19726199,"ECCENTRICITY":0.00017442,"INCLINATION":87.9204,"RA_OF_ASC_NODE":321.6728,"ARG_OF_PERICENTER":79.5289,"MEAN_ANOMALY":280.604,"EPHEMERIS_TYPE":0,"CLASSIFICATION_TYPE":"U","NORAD_CAT_ID":54118,"ELEMENT_SET_NO":999,"REV_AT_EPOCH":16577,"BSTAR":0.00017304878,"MEAN_MOTION_DOT":8.2e-7,"MEAN_MOTION_DDOT":0},{"OBJECT_NAME":"ONEWEB-0501","OBJECT_ID":"2022-138G","EPOCH":"2026-03-25T09:19:36.915744","MEAN_MOTION":13.19726105,"ECCENTRICITY":0.00019874,"INCLINATION":87.92,"RA_OF_ASC_NODE":321.6676,"ARG_OF_PERICENTER":91.7456,"MEAN_ANOMALY":268.3904,"EPHEMERIS_TYPE":0,"CLASSIFICATION_TYPE":"U","NORAD_CAT_ID":54119,"ELEMENT_SET_NO":999,"REV_AT_EPOCH":16575,"BSTAR":0.00033931911,"MEAN_MOTION_DOT":1.49e-6,"MEAN_MOTION_DDOT":0},{"OBJECT_NAME":"ONEWEB-0502","OBJECT_ID":"2022-138H","EPOCH":"2026-03-25T14:26:40.047360","MEAN_MOTION":13.19726056,"ECCENTRICITY":0.00018032,"INCLINATION":87.921,"RA_OF_ASC_NODE":321.6114,"ARG_OF_PERICENTER":91.2459,"MEAN_ANOMALY":268.8881,"EPHEMERIS_TYPE":0,"CLASSIFICATION_TYPE":"U","NORAD_CAT_ID":54120,"ELEMENT_SET_NO":999,"REV_AT_EPOCH":16580,"BSTAR":0.00031763259,"MEAN_MOTION_DOT":1.4e-6,"MEAN_MOTION_DDOT":0},{"OBJECT_NAME":"ONEWEB-0503","OBJECT_ID":"2022-138J","EPOCH":"2026-03-25T08:43:12.967392","MEAN_MOTION":13.1972597,"ECCENTRICITY":0.00015241,"INCLINATION":87.9215,"RA_OF_ASC_NODE":321.6627,"ARG_OF_PERICENTER":87.3203,"MEAN_ANOMALY":272.8104,"EPHEMERIS_TYPE":0,"CLASSIFICATION_TYPE":"U","NORAD_CAT_ID":54121,"ELEMENT_SET_NO":999,"REV_AT_EPOCH":16576,"BSTAR":0.00020339573,"MEAN_MOTION_DOT":9.4e-7,"MEAN_MOTION_DDOT":0},{"OBJECT_NAME":"ONEWEB-0504","OBJECT_ID":"2022-138K","EPOCH":"2026-03-25T08:25:01.394976","MEAN_MOTION":13.19726446,"ECCENTRICITY":0.00017664,"INCLINATION":87.9201,"RA_OF_ASC_NODE":321.6746,"ARG_OF_PERICENTER":90.8639,"MEAN_ANOMALY":269.2696,"EPHEMERIS_TYPE":0,"CLASSIFICATION_TYPE":"U","NORAD_CAT_ID":54122,"ELEMENT_SET_NO":999,"REV_AT_EPOCH":16577,"BSTAR":0.00016411978,"MEAN_MOTION_DOT":7.9e-7,"MEAN_MOTION_DDOT":0},{"OBJECT_NAME":"ONEWEB-0505","OBJECT_ID":"2022-138L","EPOCH":"2026-03-25T08:20:25.885248","MEAN_MOTION":13.19743483,"ECCENTRICITY":0.00019222,"INCLINATION":87.9218,"RA_OF_ASC_NODE":321.6722,"ARG_OF_PERICENTER":94.159,"MEAN_ANOMALY":265.9762,"EPHEMERIS_TYPE":0,"CLASSIFICATION_TYPE":"U","NORAD_CAT_ID":54123,"ELEMENT_SET_NO":999,"REV_AT_EPOCH":16575,"BSTAR":0.0043548485,"MEAN_MOTION_DOT":1.757e-5,"MEAN_MOTION_DDOT":0},{"OBJECT_NAME":"ONEWEB-0506","OBJECT_ID":"2022-138M","EPOCH":"2026-03-25T15:00:47.185632","MEAN_MOTION":13.19725779,"ECCENTRICITY":0.0001932,"INCLINATION":87.9211,"RA_OF_ASC_NODE":321.6149,"ARG_OF_PERICENTER":91.118,"MEAN_ANOMALY":269.0174,"EPHEMERIS_TYPE":0,"CLASSIFICATION_TYPE":"U","NORAD_CAT_ID":54124,"ELEMENT_SET_NO":999,"REV_AT_EPOCH":16578,"BSTAR":1.2592099e-5,"MEAN_MOTION_DOT":1.8e-7,"MEAN_MOTION_DDOT":0},{"OBJECT_NAME":"ONEWEB-0507","OBJECT_ID":"2022-138N","EPOCH":"2026-03-25T08:13:39.021600","MEAN_MOTION":13.19724938,"ECCENTRICITY":0.0001904,"INCLINATION":87.9201,"RA_OF_ASC_NODE":321.6914,"ARG_OF_PERICENTER":86.3856,"MEAN_ANOMALY":273.7495,"EPHEMERIS_TYPE":0,"CLASSIFICATION_TYPE":"U","NORAD_CAT_ID":54125,"ELEMENT_SET_NO":999,"REV_AT_EPOCH":16579,"BSTAR":-0.00012952264,"MEAN_MOTION_DOT":-3.9e-7,"MEAN_MOTION_DDOT":0},{"OBJECT_NAME":"ONEWEB-0508","OBJECT_ID":"2022-138P","EPOCH":"2026-03-25T02:41:33.929664","MEAN_MOTION":13.19729668,"ECCENTRICITY":0.00022388,"INCLINATION":87.92,"RA_OF_ASC_NODE":321.7362,"ARG_OF_PERICENTER":89.2213,"MEAN_ANOMALY":270.9177,"EPHEMERIS_TYPE":0,"CLASSIFICATION_TYPE":"U","NORAD_CAT_ID":54126,"ELEMENT_SET_NO":999,"REV_AT_EPOCH":16574,"BSTAR":0.00013833728,"MEAN_MOTION_DOT":6.8e-7,"MEAN_MOTION_DDOT":0}]
